STARLINK-36319          
1 67970U 26038K   26064.58335648 -.01484085  69159-3 -27240-2 0  9990
2 67970  97.2750  74.5443 0001216  93.5253 168.1741 16.01395731  2506
STARLINK-36710          
1 67971U 26038L   26064.58335648 -.01458616  67180-3 -26353-2 0  9998
2 67971  97.2748  74.5470 0001090 108.3957 159.0386 16.01666932  2531
STARLINK-36894          
1 67972U 26038M   26064.58335648 -.01472591  68491-3 -26393-2 0  9997
2 67972  97.2744  74.5481 0001173  90.8869 179.1282 16.01807307  2530
STARLINK-36900          
1 67973U 26038N   26064.58335648 -.01463089  67872-3 -25838-2 0  9995
2 67973  97.2744  74.5500 0001095 103.5402 171.6441 16.02061581  2532
STARLINK-36901          
1 67974U 26038P   26064.58335648 -.01466490  68058-3 -26104-2 0  9999
2 67974  97.2744  74.5487 0001123  87.1163 185.3581 16.01925280  2531
STARLINK-36883          
1 67975U 26038Q   26064.58335648 -.01458742  67915-3 -24981-2 0  9993
2 67975  97.2738  74.5545 0001132  84.3288 201.3190 16.02589752  2533
STARLINK-36880          
1 67976U 26038R   26064.58335648 -.01465528  68189-3 -25681-2 0  9996
2 67976  97.2741  74.5511 0001134  93.5677 184.2513 16.02195808  2530
STARLINK-36904          
1 67977U 26038S   26064.58335648 -.01454822  67469-3 -25111-2 0  9990
2 67977  97.2737  74.5530 0001199  83.7952 199.2330 16.02453548  2536
STARLINK-36364          
1 67978U 26038T   26064.58335648 -.01448830  67308-3 -24356-2 0  9995
2 67978  97.2733  74.5570 0001065 105.9657 185.8055 16.02904966  2538
STARLINK-36359          
1 67979U 26038U   26064.58335648 -.01457827  67608-3 -25387-2 0  9990
2 67979  97.2738  74.5515 0001082 100.9592 179.0736 16.02302122  2532
STARLINK-36882          
1 67980U 26038V   26064.58335648 -.01443741  66750-3 -24488-2 0  9990
2 67980  97.2734  74.5556 0001125  89.6086 199.2526 16.02751255  2530
STARLINK-36874          
1 67981U 26038W   26064.58335648 -.01423160  65177-3 -23800-2 0  9993
2 67981  97.2734  74.5578 0001097  92.0988 201.8485 16.02990104  2534
